[{"OBJECT_NAME":"ONEWEB-0255","OBJECT_ID":"2021-060G","EPOCH":"2026-02-17T01:04:47.116992","MEAN_MOTION":13.16596137,"ECCENTRICITY":0.0001599,"INCLINATION":87.8994,"RA_OF_ASC_NODE":252.6902,"ARG_OF_PERICENTER":103.5832,"MEAN_ANOMALY":256.5477,"EPHEMERIS_TYPE":0,"CLASSIFICATION_TYPE":"U","NORAD_CAT_ID":48973,"ELEMENT_SET_NO":999,"REV_AT_EPOCH":22385,"BSTAR":-2.9405e-5,"MEAN_MOTION_DOT":2.0e-8,"MEAN_MOTION_DDOT":0},{"OBJECT_NAME":"ONEWEB-0256","OBJECT_ID":"2021-060H","EPOCH":"2026-02-16T23:52:56.336736","MEAN_MOTION":13.16595079,"ECCENTRICITY":0.0001542,"INCLINATION":87.8997,"RA_OF_ASC_NODE":252.707,"ARG_OF_PERICENTER":87.5609,"MEAN_ANOMALY":272.5699,"EPHEMERIS_TYPE":0,"CLASSIFICATION_TYPE":"U","NORAD_CAT_ID":48974,"ELEMENT_SET_NO":999,"REV_AT_EPOCH":22381,"BSTAR":0.00011395,"MEAN_MOTION_DOT":5.6e-7,"MEAN_MOTION_DDOT":0},{"OBJECT_NAME":"ONEWEB-0257","OBJECT_ID":"2021-060J","EPOCH":"2026-02-17T02:29:07.498464","MEAN_MOTION":13.16595341,"ECCENTRICITY":0.0001461,"INCLINATION":87.8999,"RA_OF_ASC_NODE":252.6696,"ARG_OF_PERICENTER":96.8703,"MEAN_ANOMALY":263.2594,"EPHEMERIS_TYPE":0,"CLASSIFICATION_TYPE":"U","NORAD_CAT_ID":48975,"ELEMENT_SET_NO":999,"REV_AT_EPOCH":22378,"BSTAR":0.00020801,"MEAN_MOTION_DOT":9.2e-7,"MEAN_MOTION_DDOT":0},{"OBJECT_NAME":"ONEWEB-0258","OBJECT_ID":"2021-060K","EPOCH":"2026-02-17T00:41:58.659360","MEAN_MOTION":13.16595111,"ECCENTRICITY":0.0001678,"INCLINATION":87.8997,"RA_OF_ASC_NODE":252.696,"ARG_OF_PERICENTER":91.1873,"MEAN_ANOMALY":268.945,"EPHEMERIS_TYPE":0,"CLASSIFICATION_TYPE":"U","NORAD_CAT_ID":48976,"ELEMENT_SET_NO":999,"REV_AT_EPOCH":22378,"BSTAR":0.00016852,"MEAN_MOTION_DOT":7.7e-7,"MEAN_MOTION_DDOT":0},{"OBJECT_NAME":"ONEWEB-0259","OBJECT_ID":"2021-060L","EPOCH":"2026-02-17T02:22:17.087232","MEAN_MOTION":13.165959,"ECCENTRICITY":0.000161,"INCLINATION":87.8999,"RA_OF_ASC_NODE":252.6809,"ARG_OF_PERICENTER":100.7161,"MEAN_ANOMALY":259.4151,"EPHEMERIS_TYPE":0,"CLASSIFICATION_TYPE":"U","NORAD_CAT_ID":48977,"ELEMENT_SET_NO":999,"REV_AT_EPOCH":22382,"BSTAR":0.00015438,"MEAN_MOTION_DOT":7.2e-7,"MEAN_MOTION_DDOT":0},{"OBJECT_NAME":"ONEWEB-0260","OBJECT_ID":"2021-060M","EPOCH":"2026-02-17T02:09:44.017056","MEAN_MOTION":13.1659281,"ECCENTRICITY":0.000134,"INCLINATION":87.8989,"RA_OF_ASC_NODE":252.6884,"ARG_OF_PERICENTER":82.1906,"MEAN_ANOMALY":277.9377,"EPHEMERIS_TYPE":0,"CLASSIFICATION_TYPE":"U","NORAD_CAT_ID":48978,"ELEMENT_SET_NO":999,"REV_AT_EPOCH":22380,"BSTAR":0.0001149,"MEAN_MOTION_DOT":5.7e-7,"MEAN_MOTION_DDOT":0},{"OBJECT_NAME":"ONEWEB-0261","OBJECT_ID":"2021-060N","EPOCH":"2026-02-17T01:26:25.390176","MEAN_MOTION":13.16595465,"ECCENTRICITY":0.0001308,"INCLINATION":87.8986,"RA_OF_ASC_NODE":252.6967,"ARG_OF_PERICENTER":104.03,"MEAN_ANOMALY":256.0977,"EPHEMERIS_TYPE":0,"CLASSIFICATION_TYPE":"U","NORAD_CAT_ID":48979,"ELEMENT_SET_NO":999,"REV_AT_EPOCH":22385,"BSTAR":0.00010179,"MEAN_MOTION_DOT":5.2e-7,"MEAN_MOTION_DDOT":0},{"OBJECT_NAME":"ONEWEB-0262","OBJECT_ID":"2021-060P","EPOCH":"2026-02-17T00:57:56.131200","MEAN_MOTION":13.1659475,"ECCENTRICITY":0.0001793,"INCLINATION":87.9,"RA_OF_ASC_NODE":252.6807,"ARG_OF_PERICENTER":102.1035,"MEAN_ANOMALY":258.0297,"EPHEMERIS_TYPE":0,"CLASSIFICATION_TYPE":"U","NORAD_CAT_ID":48980,"ELEMENT_SET_NO":999,"REV_AT_EPOCH":22381,"BSTAR":-0.00014817,"MEAN_MOTION_DOT":-4.4e-7,"MEAN_MOTION_DDOT":0},{"OBJECT_NAME":"ONEWEB-0263","OBJECT_ID":"2021-060Q","EPOCH":"2026-02-17T01:43:31.207872","MEAN_MOTION":13.16594341,"ECCENTRICITY":0.0001453,"INCLINATION":87.8996,"RA_OF_ASC_NODE":252.6856,"ARG_OF_PERICENTER":105.6699,"MEAN_ANOMALY":254.4593,"EPHEMERIS_TYPE":0,"CLASSIFICATION_TYPE":"U","NORAD_CAT_ID":48981,"ELEMENT_SET_NO":999,"REV_AT_EPOCH":22378,"BSTAR":9.6719e-5,"MEAN_MOTION_DOT":5.0e-7,"MEAN_MOTION_DDOT":0},{"OBJECT_NAME":"ONEWEB-0264","OBJECT_ID":"2021-060R","EPOCH":"2026-02-17T00:47:40.387776","MEAN_MOTION":13.16595207,"ECCENTRICITY":0.000129,"INCLINATION":87.8997,"RA_OF_ASC_NODE":252.6975,"ARG_OF_PERICENTER":91.1718,"MEAN_ANOMALY":268.9561,"EPHEMERIS_TYPE":0,"CLASSIFICATION_TYPE":"U","NORAD_CAT_ID":48982,"ELEMENT_SET_NO":999,"REV_AT_EPOCH":22378,"BSTAR":5.0566e-5,"MEAN_MOTION_DOT":3.2e-7,"MEAN_MOTION_DDOT":0},{"OBJECT_NAME":"ONEWEB-0266","OBJECT_ID":"2021-060T","EPOCH":"2026-02-17T01:18:27.127296","MEAN_MOTION":13.16595695,"ECCENTRICITY":0.0001727,"INCLINATION":87.8997,"RA_OF_ASC_NODE":252.6816,"ARG_OF_PERICENTER":93.9645,"MEAN_ANOMALY":266.1683,"EPHEMERIS_TYPE":0,"CLASSIFICATION_TYPE":"U","NORAD_CAT_ID":48984,"ELEMENT_SET_NO":999,"REV_AT_EPOCH":22377,"BSTAR":7.2643e-5,"MEAN_MOTION_DOT":4.1e-7,"MEAN_MOTION_DDOT":0},{"OBJECT_NAME":"ONEWEB-0267","OBJECT_ID":"2021-060U","EPOCH":"2026-02-17T01:34:23.875104","MEAN_MOTION":13.16595431,"ECCENTRICITY":0.000143,"INCLINATION":87.8996,"RA_OF_ASC_NODE":252.6764,"ARG_OF_PERICENTER":98.4579,"MEAN_ANOMALY":261.6714,"EPHEMERIS_TYPE":0,"CLASSIFICATION_TYPE":"U","NORAD_CAT_ID":48985,"ELEMENT_SET_NO":999,"REV_AT_EPOCH":22378,"BSTAR":0.00026477,"MEAN_MOTION_DOT":1.14e-6,"MEAN_MOTION_DDOT":0},{"OBJECT_NAME":"ONEWEB-0268","OBJECT_ID":"2021-060V","EPOCH":"2026-02-17T00:48:48.752640","MEAN_MOTION":13.16594727,"ECCENTRICITY":0.0001524,"INCLINATION":87.8999,"RA_OF_ASC_NODE":252.6927,"ARG_OF_PERICENTER":91.4203,"MEAN_ANOMALY":268.7102,"EPHEMERIS_TYPE":0,"CLASSIFICATION_TYPE":"U","NORAD_CAT_ID":48986,"ELEMENT_SET_NO":999,"REV_AT_EPOCH":22404,"BSTAR":0.00012109,"MEAN_MOTION_DOT":5.9e-7,"MEAN_MOTION_DDOT":0},{"OBJECT_NAME":"ONEWEB-0269","OBJECT_ID":"2021-060W","EPOCH":"2026-02-17T02:10:52.576320","MEAN_MOTION":13.16595331,"ECCENTRICITY":0.0001578,"INCLINATION":87.8986,"RA_OF_ASC_NODE":252.6977,"ARG_OF_PERICENTER":82.5937,"MEAN_ANOMALY":277.5373,"EPHEMERIS_TYPE":0,"CLASSIFICATION_TYPE":"U","NORAD_CAT_ID":48987,"ELEMENT_SET_NO":999,"REV_AT_EPOCH":22382,"BSTAR":0.00051408,"MEAN_MOTION_DOT":2.09e-6,"MEAN_MOTION_DDOT":0},{"OBJECT_NAME":"ONEWEB-0270","OBJECT_ID":"2021-060X","EPOCH":"2026-02-17T00:46:32.136960","MEAN_MOTION":13.16595013,"ECCENTRICITY":0.0001603,"INCLINATION":87.8997,"RA_OF_ASC_NODE":252.6949,"ARG_OF_PERICENTER":108.7933,"MEAN_ANOMALY":251.3372,"EPHEMERIS_TYPE":0,"CLASSIFICATION_TYPE":"U","NORAD_CAT_ID":48988,"ELEMENT_SET_NO":999,"REV_AT_EPOCH":22385,"BSTAR":0.00012616,"MEAN_MOTION_DOT":6.1e-7,"MEAN_MOTION_DDOT":0},{"OBJECT_NAME":"ONEWEB-0271","OBJECT_ID":"2021-060Y","EPOCH":"2026-02-17T02:17:45.277152","MEAN_MOTION":13.16594848,"ECCENTRICITY":0.0001443,"INCLINATION":87.8999,"RA_OF_ASC_NODE":252.6731,"ARG_OF_PERICENTER":102.596,"MEAN_ANOMALY":257.5333,"EPHEMERIS_TYPE":0,"CLASSIFICATION_TYPE":"U","NORAD_CAT_ID":48989,"ELEMENT_SET_NO":999,"REV_AT_EPOCH":22386,"BSTAR":0.00036258,"MEAN_MOTION_DOT":1.51e-6,"MEAN_MOTION_DDOT":0},{"OBJECT_NAME":"ONEWEB-0272","OBJECT_ID":"2021-060Z","EPOCH":"2026-02-17T01:00:13.026816","MEAN_MOTION":13.16595015,"ECCENTRICITY":0.0001354,"INCLINATION":87.8998,"RA_OF_ASC_NODE":252.6951,"ARG_OF_PERICENTER":94.892,"MEAN_ANOMALY":265.2366,"EPHEMERIS_TYPE":0,"CLASSIFICATION_TYPE":"U","NORAD_CAT_ID":48990,"ELEMENT_SET_NO":999,"REV_AT_EPOCH":22380,"BSTAR":3.9413e-5,"MEAN_MOTION_DOT":2.8e-7,"MEAN_MOTION_DDOT":0}]
