ONEWEB-0255             
1 48973U 21060G   26048.04498978  .00000002  00000+0 -29405-4 0  9995
2 48973  87.8994 252.6902 0001599 103.5832 256.5477 13.16596137223858
ONEWEB-0256             
1 48974U 21060H   26047.99509649  .00000056  00000+0  11395-3 0  9993
2 48974  87.8997 252.7070 0001542  87.5609 272.5699 13.16595079223814
ONEWEB-0257             
1 48975U 21060J   26048.10355901  .00000092  00000+0  20801-3 0  9990
2 48975  87.8999 252.6696 0001461  96.8703 263.2594 13.16595341223787
ONEWEB-0258             
1 48976U 21060K   26048.02915115  .00000077  00000+0  16852-3 0  9995
2 48976  87.8997 252.6960 0001678  91.1873 268.9450 13.16595111223784
ONEWEB-0259             
1 48977U 21060L   26048.09880888  .00000072  00000+0  15438-3 0  9995
2 48977  87.8999 252.6809 0001610 100.7161 259.4151 13.16595900223826
ONEWEB-0260             
1 48978U 21060M   26048.09009279  .00000057  00000+0  11490-3 0  9990
2 48978  87.8989 252.6884 0001340  82.1906 277.9377 13.16592810223809
ONEWEB-0261             
1 48979U 21060N   26048.06001609  .00000052  00000+0  10179-3 0  9995
2 48979  87.8986 252.6967 0001308 104.0300 256.0977 13.16595465223853
ONEWEB-0262             
1 48980U 21060P   26048.04023300 -.00000044  00000+0 -14817-3 0  9993
2 48980  87.9000 252.6807 0001793 102.1035 258.0297 13.16594750223817
ONEWEB-0263             
1 48981U 21060Q   26048.07188898  .00000050  00000+0  96719-4 0  9998
2 48981  87.8996 252.6856 0001453 105.6699 254.4593 13.16594341223783
ONEWEB-0264             
1 48982U 21060R   26048.03310634  .00000032  00000+0  50566-4 0  9990
2 48982  87.8997 252.6975 0001290  91.1718 268.9561 13.16595207223784
ONEWEB-0266             
1 48984U 21060T   26048.05448064  .00000041  00000+0  72643-4 0  9993
2 48984  87.8997 252.6816 0001727  93.9645 266.1683 13.16595695223779
ONEWEB-0267             
1 48985U 21060U   26048.06555411  .00000114  00000+0  26477-3 0  9994
2 48985  87.8996 252.6764 0001430  98.4579 261.6714 13.16595431223782
ONEWEB-0268             
1 48986U 21060V   26048.03389760  .00000059  00000+0  12109-3 0  9999
2 48986  87.8999 252.6927 0001524  91.4203 268.7102 13.16594727224044
ONEWEB-0269             
1 48987U 21060W   26048.09088630  .00000209  00000+0  51408-3 0  9990
2 48987  87.8986 252.6977 0001578  82.5937 277.5373 13.16595331223825
ONEWEB-0270             
1 48988U 21060X   26048.03231640  .00000061  00000+0  12616-3 0  9990
2 48988  87.8997 252.6949 0001603 108.7933 251.3372 13.16595013223852
ONEWEB-0271             
1 48989U 21060Y   26048.09566293  .00000151  00000+0  36258-3 0  9990
2 48989  87.8999 252.6731 0001443 102.5960 257.5333 13.16594848223869
ONEWEB-0272             
1 48990U 21060Z   26048.04181744  .00000028  00000+0  39413-4 0  9991
2 48990  87.8998 252.6951 0001354  94.8920 265.2366 13.16595015223807
